OBJECT_NAME,OBJECT_ID,EPOCH,MEAN_MOTION,ECCENTRICITY,INCLINATION,RA_OF_ASC_NODE,ARG_OF_PERICENTER,MEAN_ANOMALY,EPHEMERIS_TYPE,CLASSIFICATION_TYPE,NORAD_CAT_ID,ELEMENT_SET_NO,REV_AT_EPOCH,BSTAR,MEAN_MOTION_DOT,MEAN_MOTION_DDOT
HST,1990-037B,2026-07-18T18:13:36.772896,15.31081460,.00021575,28.4721,224.7316,138.2222,221.8539,0,U,20580,999,79341,.89242238E-4,.2987E-4,0
POLAR,1996-013A,2026-07-17T01:49:51.540672,1.29846054,.65003559,79.8950,226.6973,208.0495,91.8485,0,U,23802,999,14524,0,.165E-5,0
SWAS,1998-071A,2026-07-18T21:15:04.057632,15.09760567,.00076719,69.8944,145.7655,226.5610,133.4917,0,U,25560,999,50205,.10355102E-3,.157E-4,0
CXO,1999-040B,2026-07-20T02:43:32.333088,0.37806069,.7780937,56.6395,115.7467,310.0076,0.5836,0,U,25867,999,1744,0,.551E-5,0
XMM-NEWTON,1999-066A,2026-07-20T06:14:17.625408,0.50127970,.46645709,64.3074,282.5600,64.3171,0.0365,0,U,25989,999,2316,0,-.7E-7,0
TERRA,1999-068A,2026-07-18T22:15:02.945088,14.61125306,.00035463,97.9438,248.2121,115.4264,290.2725,0,U,25994,999,41424,.40641493E-4,.156E-5,0
CLUSTER II-FM7 (SAMBA),2000-041A,2026-07-20T14:26:12.594624,0.44849809,.90917359,149.8022,56.9138,274.4937,359.4015,0,U,26410,999,2046,0,.10309E-3,-.3041949E-5
CLUSTER II-FM8 (TANGO),2000-045B,2026-07-16T16:51:09.379296,0.44421164,.90933639,150.0277,57.4160,274.7881,2.0004,0,U,26464,999,2044,0,.1136E-3,0
ODIN,2001-007A,2026-07-18T13:52:08.952096,15.91446759,.0005108,97.3687,242.8555,151.5829,208.5724,0,U,26702,999,39436,.91784E-3,.293286E-2,.34125E-4
TIMED,2001-055B,2026-07-18T22:06:32.106816,14.95348938,.00023165,74.0668,171.1193,296.5904,63.5043,0,U,26998,999,33556,.51998538E-4,.534E-5,0
CORIOLIS,2003-001A,2026-07-18T21:45:10.370592,14.19952442,.0015064,98.7135,206.3079,119.2954,240.9730,0,U,27640,999,21872,.36553804E-4,.34E-6,0
SORCE,2003-004A,2026-07-18T18:01:16.111488,15.03851306,.00187648,39.9915,81.5714,278.2999,81.5667,0,U,27651,999,27665,.92695996E-4,.1149E-4,0
MOST,2003-031D,2026-07-18T21:21:16.465824,14.21328144,.00103085,98.7054,207.1742,154.8482,205.3199,0,U,27843,999,19521,.2447192E-4,.1E-6,0
SCISAT 1,2003-036A,2026-07-18T21:31:11.752320,14.81481198,.00071945,73.9302,108.3406,175.4553,184.6691,0,U,27858,999,23614,.36514013E-4,.249E-5,0
SWIFT,2004-047A,2026-07-18T13:50:04.239744,15.71432448,.0002527,20.5525,302.2090,57.1497,302.9192,0,U,28485,999,19180,.28862E-3,.39733E-3,0
HINODE (SOLAR-B),2006-041A,2026-07-18T10:58:48.300672,14.68660447,.0017289,98.0548,215.1492,183.9439,176.1633,0,U,29479,999,5946,.53207858E-4,.261E-5,0
SHIJIAN-6 02A (SJ-6 02A),2006-046A,2026-07-18T22:45:43.432704,15.17265359,.00040855,97.6340,241.2574,55.7906,304.3714,0,U,29505,999,7708,.77641395E-4,.1476E-4,0
SHIJIAN-6 02B (SJ-6 02B),2006-046B,2026-07-19T00:04:08.960736,15.01440984,.00128881,97.7139,228.8643,322.6609,37.3718,0,U,29506,999,7551,.31202713E-4,.342E-5,0
FGRST (GLAST),2008-029A,2026-07-18T17:19:51.288960,15.24087847,.00079468,25.5830,345.4947,342.2061,17.8198,0,U,33053,999,50,.58464669E-4,.1797E-4,0
SDO,2010-005A,2026-07-18T05:45:40.417632,1.00277384,.00017554,34.7143,85.8693,43.0517,151.3467,0,U,36395,999,6037,0,-.94E-6,0
CRYOSAT 2,2010-013A,2026-07-18T22:08:35.660544,14.51899145,.00024415,92.0357,285.0167,98.7929,261.3554,0,U,36508,999,86268,.19661924E-4,.82E-6,0
X-SAT,2011-015C,2026-07-18T21:18:48.058272,14.25214913,.00127676,98.3535,175.4051,248.7588,111.2229,0,U,37389,999,79219,.75381742E-4,.136E-5,0
GCOM-W1 (SHIZUKU),2012-025A,2026-07-18T19:59:45.279744,14.57091873,.00012795,98.2024,139.9102,78.8347,16.6223,0,U,38337,999,75364,.52550045E-4,.191E-5,0
NUSTAR,2012-031A,2026-07-19T00:00:00.999648,15.09060648,.0008459,6.0248,155.4493,227.2602,347.7169,0,U,38358,999,130,.86581473E-4,.227E-4,0
NEOSSAT,2013-009D,2026-07-18T10:17:43.831392,14.35836280,.00116305,98.4192,18.7209,148.0748,212.1145,0,U,39089,999,70122,.29218757E-4,.42E-6,0
BRITE-AUSTRIA,2013-009F,2026-07-18T11:33:38.756448,14.36553265,.00109399,98.4011,18.1453,141.4907,218.7063,0,U,39091,999,70154,.35785691E-4,.62E-6,0
IRIS,2013-033A,2026-07-18T03:23:19.159872,14.85940228,.00235188,97.9318,38.3206,214.9300,145.0373,0,U,39197,999,70497,.62351597E-4,.49E-5,0
HISAKI (SPRINT-A),2013-049A,2026-07-18T20:54:11.808000,13.55546936,.01369744,29.7217,58.9250,273.6624,84.8293,0,U,39253,999,63572,.32966621E-4,.91E-6,0
CASSIOPE,2013-055A,2026-07-18T21:16:01.717536,15.27543902,.02821844,80.9132,28.1405,315.3651,42.5165,0,U,39265,999,67250,.16747689E-3,.15657E-3,-.532289E-6
STSAT-3,2013-066G,2026-07-18T22:32:28.078368,15.02899982,.00088287,97.6205,169.3152,289.9544,70.0730,0,U,39422,999,68897,.14023137E-3,.1822E-4,0
